{"type": "FeatureCollection", "features": [ {"type": "Feature", "properties": {"norad_id": 66628, "name": "STARLINK-35862", "group": "last-30-days", "lat": 33.38908039605654, "lon": -29.234976130489176, "alt_km": 414.9462044103266, "timestamp": "2025-12-14T03:55:51.548535+00:00", "meta": {"OBJECT_NAME": "STARLINK-35862", "OBJECT_ID": "2025-271M", "EPOCH": "2025-12-13T06:00:02.000160", "MEAN_MOTION": 15.49396194, "ECCENTRICITY": 5.692e-05, "INCLINATION": 53.16, "RA_OF_ASC_NODE": 184.7483, "ARG_OF_PERICENTER": 85.5268, "MEAN_ANOMALY": 351.7179, "EPHEMERIS_TYPE": 0, "CLASSIFICATION_TYPE": "U", "NORAD_CAT_ID": 66628, "ELEMENT_SET_NO": 999, "REV_AT_EPOCH": 432, "BSTAR": -0.0030679849, "MEAN_MOTION_DOT": -0.00167969, "MEAN_MOTION_DDOT": 0}, "tle": {"line1": "1 66628U 25271M   25347.25002315 -.00167969  00000+0 -30680-2 0  9992", "line2": "2 66628  53.1600 184.7483 0000569  85.5268 351.7179 15.49396194  4327"}}, "geometry": {"type": "Point", "coordinates": [-29.234976130489176, 33.38908039605654]}}, {"type": "Feature", "properties": {"norad_id": 66629, "name": "STARLINK-35956", "group": "last-30-days", "lat": 31.998779974593074, "lon": -27.55965364610796, "alt_km": 414.9614635635944, "timestamp": "2025-12-14T03:55:51.548545+00:00", "meta": {"OBJECT_NAME": "STARLINK-35956", "OBJECT_ID": "2025-271N", "EPOCH": "2025-12-13T06:00:02.000160", "MEAN_MOTION": 15.49372956, "ECCENTRICITY": 6.193e-05, "INCLINATION": 53.1599, "RA_OF_ASC_NODE": 184.7446, "ARG_OF_PERICENTER": 85.5531, "MEAN_ANOMALY": 353.5963, "EPHEMERIS_TYPE": 0, "CLASSIFICATION_TYPE": "U", "NORAD_CAT_ID": 66629, "ELEMENT_SET_NO": 999, "REV_AT_EPOCH": 432, "BSTAR": -0.0021640398, "MEAN_MOTION_DOT": -0.00119248, "MEAN_MOTION_DDOT": 0}, "tle": {"line1": "1 66629U 25271N   25347.25002315 -.00119248  00000+0 -21640-2 0  9996", "line2": "2 66629  53.1599 184.7446 0000619  85.5531 353.5963 15.49372956  4324"}}, "geometry": {"type": "Point", "coordinates": [-27.55965364610796, 31.998779974593074]}}, {"type": "Feature", "properties": {"norad_id": 66630, "name": "STARLINK-35949", "group": "last-30-days", "lat": 30.679703283984605, "lon": -26.040416440180522, "alt_km": 415.09151304844, "timestamp": "2025-12-14T03:55:51.548555+00:00", "meta": {"OBJECT_NAME": "STARLINK-35949", "OBJECT_ID": "2025-271P", "EPOCH": "2025-12-13T06:00:02.000160", "MEAN_MOTION": 15.49378624, "ECCENTRICITY": 0.00010549, "INCLINATION": 53.1599, "RA_OF_ASC_NODE": 184.7396, "ARG_OF_PERICENTER": 98.3003, "MEAN_ANOMALY": 342.8051, "EPHEMERIS_TYPE": 0, "CLASSIFICATION_TYPE": "U", "NORAD_CAT_ID": 66630, "ELEMENT_SET_NO": 999, "REV_AT_EPOCH": 432, "BSTAR": -0.0029181846, "MEAN_MOTION_DOT": -0.00159862, "MEAN_MOTION_DDOT": 0}, "tle": {"line1": "1 66630U 25271P   25347.25002315 -.00159862  00000+0 -29182-2 0  9993", "line2": "2 66630  53.1599 184.7396 0001054  98.3003 342.8051 15.49378624  4327"}}, "geometry": {"type": "Point", "coordinates": [-26.040416440180522, 30.679703283984605]}}, {"type": "Feature", "properties": {"norad_id": 66631, "name": "STARLINK-35965", "group": "last-30-days", "lat": 29.05630901448952, "lon": -24.250367956830477, "alt_km": 414.7896955177157, "timestamp": "2025-12-14T03:55:51.548566+00:00", "meta": {"OBJECT_NAME": "STARLINK-35965", "OBJECT_ID": "2025-271Q", "EPOCH": "2025-12-13T06:00:02.000160", "MEAN_MOTION": 15.49248069, "ECCENTRICITY": 4.174e-05, "INCLINATION": 53.1601, "RA_OF_ASC_NODE": 184.7365, "ARG_OF_PERICENTER": 68.6488, "MEAN_ANOMALY": 14.3346, "EPHEMERIS_TYPE": 0, "CLASSIFICATION_TYPE": "U", "NORAD_CAT_ID": 66631, "ELEMENT_SET_NO": 999, "REV_AT_EPOCH": 432, "BSTAR": 0.0018685867, "MEAN_MOTION_DOT": 0.00104653, "MEAN_MOTION_DDOT": 0}, "tle": {"line1": "1 66631U 25271Q   25347.25002315  .00104653  00000+0  18686-2 0  9997", "line2": "2 66631  53.1601 184.7365 0000417  68.6488  14.3346 15.49248069  4324"}}, "geometry": {"type": "Point", "coordinates": [-24.250367956830477, 29.05630901448952]}}, {"type": "Feature", "properties": {"norad_id": 66632, "name": "STARLINK-35973", "group": "last-30-days", "lat": 27.688297425925676, "lon": -22.80551997918012, "alt_km": 415.1233593904499, "timestamp": "2025-12-14T03:55:51.548576+00:00", "meta": {"OBJECT_NAME": "STARLINK-35973", "OBJECT_ID": "2025-271R", "EPOCH": "2025-12-13T06:00:02.000160", "MEAN_MOTION": 15.49280995, "ECCENTRICITY": 5.059e-05, "INCLINATION": 53.16, "RA_OF_ASC_NODE": 184.7323, "ARG_OF_PERICENTER": 71.8573, "MEAN_ANOMALY": 13.0172, "EPHEMERIS_TYPE": 0, "CLASSIFICATION_TYPE": "U", "NORAD_CAT_ID": 66632, "ELEMENT_SET_NO": 999, "REV_AT_EPOCH": 426, "BSTAR": 0.0010767428, "MEAN_MOTION_DOT": 0.00059836, "MEAN_MOTION_DDOT": 0}, "tle": {"line1": "1 66632U 25271R   25347.25002315  .00059836  00000+0  10767-2 0  9992", "line2": "2 66632  53.1600 184.7323 0000505  71.8573  13.0172 15.49280995  4267"}}, "geometry": {"type": "Point", "coordinates": [-22.80551997918012, 27.688297425925676]}}, {"type": "Feature", "properties": {"norad_id": 66633, "name": "STARLINK-35948", "group": "last-30-days", "lat": 26.247789656294554, "lon": -21.340422786451956, "alt_km": 415.15181189019495, "timestamp": "2025-12-14T03:55:51.548588+00:00", "meta": {"OBJECT_NAME": "STARLINK-35948", "OBJECT_ID": "2025-271S", "EPOCH": "2025-12-13T06:00:02.000160", "MEAN_MOTION": 15.49315427, "ECCENTRICITY": 9.198e-05, "INCLINATION": 53.1593, "RA_OF_ASC_NODE": 184.7269, "ARG_OF_PERICENTER": 107.2932, "MEAN_ANOMALY": 339.5706, "EPHEMERIS_TYPE": 0, "CLASSIFICATION_TYPE": "U", "NORAD_CAT_ID": 66633, "ELEMENT_SET_NO": 999, "REV_AT_EPOCH": 432, "BSTAR": 0.00013125899, "MEAN_MOTION_DOT": 6.86e-05, "MEAN_MOTION_DDOT": 0}, "tle": {"line1": "1 66633U 25271S   25347.25002315  .00006860  00000+0  13126-3 0  9995", "line2": "2 66633  53.1593 184.7269 0000919 107.2932 339.5706 15.49315427  4325"}}, "geometry": {"type": "Point", "coordinates": [-21.340422786451956, 26.247789656294554]}}, {"type": "Feature", "properties": {"norad_id": 66634, "name": "STARLINK-35967", "group": "last-30-days", "lat": 25.05505574192624, "lon": -20.163657952359813, "alt_km": 416.20371048202014, "timestamp": "2025-12-14T03:55:51.548600+00:00", "meta": {"OBJECT_NAME": "STARLINK-35967", "OBJECT_ID": "2025-271T", "EPOCH": "2025-12-13T06:00:02.000160", "MEAN_MOTION": 15.49385712, "ECCENTRICITY": 9.638e-05, "INCLINATION": 53.1599, "RA_OF_ASC_NODE": 184.7228, "ARG_OF_PERICENTER": 92.6002, "MEAN_ANOMALY": 356.1725, "EPHEMERIS_TYPE": 0, "CLASSIFICATION_TYPE": "U", "NORAD_CAT_ID": 66634, "ELEMENT_SET_NO": 999, "REV_AT_EPOCH": 425, "BSTAR": -0.0031340017, "MEAN_MOTION_DOT": -0.00171441, "MEAN_MOTION_DDOT": 0}, "tle": {"line1": "1 66634U 25271T   25347.25002315 -.00171441  00000+0 -31340-2 0  9993", "line2": "2 66634  53.1599 184.7228 0000963  92.6002 356.1725 15.49385712  4253"}}, "geometry": {"type": "Point", "coordinates": [-20.163657952359813, 25.05505574192624]}}, {"type": "Feature", "properties": {"norad_id": 66635, "name": "STARLINK-35955", "group": "last-30-days", "lat": 23.583684207124605, "lon": -18.754952703187698, "alt_km": 416.7302307704622, "timestamp": "2025-12-14T03:55:51.548610+00:00", "meta": {"OBJECT_NAME": "STARLINK-35955", "OBJECT_ID": "2025-271U", "EPOCH": "2025-12-13T06:00:02.000160", "MEAN_MOTION": 15.49341647, "ECCENTRICITY": 1.288e-05, "INCLINATION": 53.1599, "RA_OF_ASC_NODE": 184.7193, "ARG_OF_PERICENTER": 204.5934, "MEAN_ANOMALY": 246.1747, "EPHEMERIS_TYPE": 0, "CLASSIFICATION_TYPE": "U", "NORAD_CAT_ID": 66635, "ELEMENT_SET_NO": 999, "REV_AT_EPOCH": 432, "BSTAR": -0.0024619243, "MEAN_MOTION_DOT": -0.00135175, "MEAN_MOTION_DDOT": 0}, "tle": {"line1": "1 66635U 25271U   25347.25002315 -.00135175  00000+0 -24619-2 0  9999", "line2": "2 66635  53.1599 184.7193 0000128 204.5934 246.1747 15.49341647  4325"}}, "geometry": {"type": "Point", "coordinates": [-18.754952703187698, 23.583684207124605]}}, {"type": "Feature", "properties": {"norad_id": 66636, "name": "STARLINK-35968", "group": "last-30-days", "lat": 22.06506536128427, "lon": -17.347023247134445, "alt_km": 416.6845441582118, "timestamp": "2025-12-14T03:55:51.548620+00:00", "meta": {"OBJECT_NAME": "STARLINK-35968", "OBJECT_ID": "2025-271V", "EPOCH": "2025-12-13T06:00:02.000160", "MEAN_MOTION": 15.49365553, "ECCENTRICITY": 5.748e-05, "INCLINATION": 53.1598, "RA_OF_ASC_NODE": 184.7152, "ARG_OF_PERICENTER": 59.6246, "MEAN_ANOMALY": 32.9061, "EPHEMERIS_TYPE": 0, "CLASSIFICATION_TYPE": "U", "NORAD_CAT_ID": 66636, "ELEMENT_SET_NO": 999, "REV_AT_EPOCH": 432, "BSTAR": -0.0015675753, "MEAN_MOTION_DOT": -0.00086837, "MEAN_MOTION_DDOT": 0}, "tle": {"line1": "1 66636U 25271V   25347.25002315 -.00086837  00000+0 -15676-2 0  9993", "line2": "2 66636  53.1598 184.7152 0000574  59.6246  32.9061 15.49365553  4322"}}, "geometry": {"type": "Point", "coordinates": [-17.347023247134445, 22.06506536128427]}}, {"type": "Feature", "properties": {"norad_id": 66637, "name": "STARLINK-35953", "group": "last-30-days", "lat": 20.51504667451971, "lon": -15.951488908775742, "alt_km": 416.41051755166336, "timestamp": "2025-12-14T03:55:51.548632+00:00", "meta": {"OBJECT_NAME": "STARLINK-35953", "OBJECT_ID": "2025-271W", "EPOCH": "2025-12-13T06:00:02.000160", "MEAN_MOTION": 15.49253052, "ECCENTRICITY": 4.524e-05, "INCLINATION": 53.1598, "RA_OF_ASC_NODE": 184.7111, "ARG_OF_PERICENTER": 67.8143, "MEAN_ANOMALY": 26.6517, "EPHEMERIS_TYPE": 0, "CLASSIFICATION_TYPE": "U", "NORAD_CAT_ID": 66637, "ELEMENT_SET_NO": 999, "REV_AT_EPOCH": 432, "BSTAR": 0.001183933, "MEAN_MOTION_DOT": 0.00065824, "MEAN_MOTION_DDOT": 0}, "tle": {"line1": "1 66637U 25271W   25347.25002315  .00065824  00000+0  11839-2 0  9992", "line2": "2 66637  53.1598 184.7111 0000452  67.8143  26.6517 15.49253052  4326"}}, "geometry": {"type": "Point", "coordinates": [-15.951488908775742, 20.51504667451971]}}]}